{"type":"FeatureCollection","note":"APPROXIMATE. Denver's official CBD + Union Station neighbourhood polygons, used as a stand-in for Veo's Rover service area, which Veo does not publish. Not Veo's geofence. See scripts/build-rover-zone.mjs.","features":[{"type":"Feature","properties":{"zone":"rover_service_area","approximate":true,"source":"denver_neighborhoods","neighborhoods":"CBD + Union Station"},"geometry":{"type":"Polygon","coordinates":[[[-105.008186,39.754792],[-105.008186,39.754783],[-105.008183,39.754718],[-105.008173,39.754647],[-105.008167,39.754546],[-105.008132,39.754417],[-105.008108,39.754329],[-105.008039,39.754159],[-105.007983,39.753998],[-105.007949,39.753861],[-105.007918,39.753701],[-105.00789,39.753621],[-105.007859,39.753561],[-105.007827,39.753509],[-105.007771,39.753446],[-105.007609,39.753306],[-105.007567,39.753275],[-105.00751,39.753229],[-105.007387,39.753137],[-105.007257,39.753027],[-105.007116,39.752912],[-105.006968,39.752791],[-105.006764,39.75264],[-105.006577,39.752504],[-105.006504,39.752446],[-105.006446,39.752402],[-105.006355,39.752333],[-105.006179,39.752196],[-105.005929,39.751998],[-105.005799,39.751892],[-105.005708,39.751821],[-105.005588,39.751725],[-105.005412,39.751587],[-105.005056,39.751322],[-105.004898,39.751204],[-105.004774,39.751108],[-105.004609,39.750981],[-105.004443,39.750849],[-105.003951,39.750488],[-105.003784,39.750367],[-105.003609,39.750213],[-105.003404,39.750029],[-105.003274,39.749929],[-105.003214,39.749885],[-105.003056,39.749775],[-105.00294,39.749679],[-105.002785,39.749561],[-105.002654,39.749473],[-105.002517,39.749384],[-105.002292,39.749225],[-105.002194,39.749146],[-105.002034,39.749027],[-105.001933,39.748956],[-105.001795,39.748859],[-105.001714,39.748796],[-105.001524,39.748615],[-105.001468,39.748552],[-105.001405,39.748464],[-105.001307,39.748292],[-105.001206,39.748166],[-105.001139,39.748051],[-105.001041,39.747825],[-105.001017,39.747778],[-105.000954,39.747688],[-105.000919,39.747625],[-105.000866,39.747527],[-105.000866,39.747526],[-105.000807,39.747384],[-105.000769,39.747288],[-105.000738,39.74721],[-105.00071,39.747158],[-105.000667,39.747089],[-105.000626,39.747018],[-105.000594,39.746974],[-105.000549,39.746919],[-105.000472,39.746725],[-105.000448,39.746643],[-105.000424,39.746563],[-105.000414,39.746484],[-105.000414,39.746432],[-105.000414,39.74639],[-105.000443,39.745926],[-105.000436,39.745802],[-105.000422,39.74552],[-105.000415,39.745386],[-105.000411,39.745347],[-105.000405,39.745181],[-105.000399,39.745075],[-105.000389,39.744963],[-105.000365,39.744794],[-105.000342,39.744621],[-105.000325,39.744489],[-105.000302,39.744265],[-105.000296,39.744062],[-105.00029,39.743857],[-105.000287,39.743777],[-105.000271,39.743686],[-105.000254,39.743583],[-105.000219,39.743484],[-105.000184,39.743405],[-105.000135,39.743306],[-105.000096,39.743229],[-105.000045,39.743134],[-105.00001,39.743076],[-104.999989,39.743023],[-104.999947,39.742932],[-104.999908,39.742842],[-104.999874,39.742732],[-104.999839,39.742626],[-104.999794,39.742532],[-104.999745,39.742404],[-104.999703,39.742319],[-104.999655,39.742244],[-104.999542,39.742025],[-104.999525,39.741988],[-104.999487,39.741922],[-104.999434,39.741834],[-104.999385,39.741744],[-104.999336,39.741642],[-104.999299,39.741557],[-104.999119,39.741236],[-104.999113,39.741222],[-104.999096,39.741192],[-104.999075,39.741156],[-104.999057,39.741118],[-104.999043,39.741085],[-104.999026,39.741041],[-104.99898,39.740975],[-104.998952,39.740937],[-104.998931,39.740899],[-104.998911,39.740852],[-104.99889,39.740786],[-104.998865,39.740712],[-104.998855,39.740674],[-104.998838,39.740628],[-104.998817,39.740581],[-104.998778,39.740517],[-104.99875,39.740473],[-104.998694,39.740399],[-104.998624,39.740292],[-104.998614,39.740274],[-104.998567,39.740194],[-104.998254,39.740181],[-104.998126,39.740179],[-104.996937,39.740164],[-104.996513,39.740158],[-104.996442,39.740158],[-104.99527,39.740148],[-104.99436,39.74014],[-104.993534,39.740135],[-104.99292,39.740132],[-104.992504,39.74013],[-104.991655,39.740125],[-104.990423,39.740117],[-104.990077,39.740112],[-104.989941,39.740123],[-104.989819,39.740163],[-104.989677,39.740238],[-104.989555,39.740369],[-104.989427,39.740466],[-104.989305,39.740548],[-104.989105,39.740607],[-104.98894,39.74064],[-104.988755,39.740636],[-104.988534,39.740565],[-104.988532,39.740564],[-104.988403,39.74049],[-104.988282,39.740388],[-104.988123,39.740286],[-104.988102,39.740274],[-104.987968,39.740195],[-104.987919,39.740168],[-104.987846,39.740149],[-104.987769,39.74013],[-104.987511,39.740106],[-104.987389,39.740107],[-104.987384,39.740853],[-104.987397,39.741472],[-104.987406,39.741693],[-104.987411,39.741954],[-104.987417,39.742209],[-104.987387,39.74306],[-104.987376,39.743358],[-104.98742,39.744834],[-104.987407,39.745063],[-104.987408,39.745467],[-104.987408,39.745932],[-104.987408,39.746193],[-104.987401,39.74668],[-104.987397,39.746974],[-104.9874,39.747358],[-104.987398,39.748214],[-104.987397,39.748913],[-104.987526,39.749048],[-104.988227,39.749587],[-104.988671,39.749926],[-104.989101,39.750254],[-104.989976,39.750942],[-104.990831,39.75159],[-104.991691,39.752289],[-104.992144,39.752617],[-104.992597,39.752946],[-104.992992,39.753287],[-104.993418,39.753655],[-104.993828,39.753981],[-104.994272,39.754335],[-104.994701,39.754658],[-104.995148,39.754994],[-104.996119,39.755729],[-104.997019,39.75647],[-104.997378,39.756764],[-104.998575,39.757749],[-104.999548,39.758474],[-104.999831,39.758672],[-105.000104,39.758837],[-105.000826,39.75921],[-105.001331,39.759458],[-105.001778,39.759672],[-105.001894,39.759761],[-105.003169,39.760406],[-105.00343,39.760221],[-105.003586,39.760128],[-105.003717,39.760046],[-105.003817,39.759967],[-105.003918,39.75989],[-105.004025,39.759808],[-105.004115,39.759702],[-105.004187,39.759594],[-105.00425,39.759494],[-105.004295,39.759424],[-105.004422,39.759248],[-105.004538,39.759097],[-105.004729,39.758914],[-105.004867,39.758789],[-105.005075,39.758619],[-105.005157,39.758547],[-105.005497,39.758198],[-105.005612,39.758073],[-105.005654,39.758022],[-105.005699,39.75795],[-105.005755,39.757834],[-105.005796,39.757739],[-105.005812,39.757666],[-105.005827,39.757584],[-105.005839,39.757509],[-105.005869,39.757449],[-105.005944,39.757347],[-105.006033,39.757241],[-105.006116,39.757142],[-105.006175,39.757063],[-105.006329,39.756881],[-105.006441,39.756752],[-105.006508,39.756675],[-105.006598,39.756564],[-105.006646,39.756506],[-105.006747,39.756366],[-105.006837,39.756252],[-105.007024,39.756047],[-105.007154,39.755891],[-105.007584,39.755403],[-105.008186,39.754792]]]}}]}